P/2019 T6 (PANSTARRS),e,18.6991,71.2391,328.9665,5.436681,0.0777505,0.62300136,85.0328,11/06.0/2022,2000,g 15.5,4.0
# From MPC118096
P/2019 U4 (PANSTARRS),e,11.6998,200.0007,181.0119,3.520309,0.1492220,0.47597350,170.6791,11/06.0/2022,2000,g 19.0,4.0
# From MPEC 2022-TA0
C/2019 U5 (PANSTARRS),h,03/29.8888/2023,113.5212,2.6371,181.5055,1.001487,3.624107,2000,4.5,4.0
# From MPEC 2022-H04
C/2019 U6 (Lemmon),e,60.9866,235.7395,329.6068,353.3831,0.0001484,0.99741355,0.0000,06/18.5322/2020,2000,g 10.0,4.0
# From MPEC 2022-N37
C/2019 V1 (Borisov),e,61.8912,83.1752,51.1669,1495,0.0000170,0.99792958,0.0000,07/16.3743/2020,2000,g 11.0,4.0
# From MPEC 2022-L66
P/2019 V2 (Groeller),e,11.8083,189.1850,335.8224,7.502321,0.0479635,0.33113836,35.9250,11/06.0/2022,2000,g 10.0,4.0
# From MPC119998
P/2019 W1 (PANSTARRS),e,23.4732,35.3774,18.7005,4.549339,0.1015738,0.26693919,129.7574,11/06.0/2022,2000,g 12.9,4.0
# From MPEC 2021-P47
P/2019 X1 (Pruyne),e,10.2492,43.6674,36.7875,6.173463,0.0642556,0.30343678,77.3245,11/06.0/2022,2000,g 10.4,4.0
# From MPC119999
C/2019 Y1 (ATLAS),e,73.3435,31.5494,57.9276,86.10740,0.0012335,0.99036221,0.0000,03/15.8165/2020,2000,g 13.7,4.0
# From MPEC 2022-O08
C/2019 Y4 (ATLAS),e,45.2865,120.6230,177.4535,351.2844,0.0001497,0.99927568,0.0000,05/30.9768/2020,2000,g 11.8,6.0
# From MPEC 2020-L06
C/2019 Y4-A (ATLAS),h,05/31.0017/2020,45.7316,120.9842,177.2866,1.001417,0.252590,2000,11.6,6.0
# From MPEC 2020-L06
C/2019 Y4-B (ATLAS),e,45.3669,120.6793,177.4195,1509,0.0000168,0.99983160,0.0000,05/30.9789/2020,2000,g 12.8,6.0
# From MPEC 2020-L06
C/2019 Y4-C (ATLAS),h,05/30.9575/2020,45.5138,120.7105,177.3200,1.002139,0.253653,2000,12.7,6.0
# From MPEC 2020-L06
C/2019 Y4-D (ATLAS),e,45.5571,121.0875,177.4578,68.44904,0.0017404,0.99630375,0.0000,05/31.0803/2020,2000,g 12.5,6.0
# From MPEC 2021-P47
C/2019 Y5 (PANSTARRS),e,82.7781,51.7636,303.5407,780.1739,0.0000452,0.99369676,0.0000,08/18.1199/2019,2000,g 11.0,4.0
# From MPEC 2022-UY9
A/2020 A1,e,149.0400,119.2322,302.5587,25.74093,0.0075469,0.93523603,8.0707,11/06.0/2022,2000,g 18.0,2.0
# From MPEC 2020-L06
C/2020 A2 (Iwamoto),e,120.6717,286.3320,68.1252,1273,0.0000217,0.99923392,0.0000,01/08.5588/2020,2000,g 13.5,4.0
# From MPEC 2022-N37
C/2020 A3 (ATLAS),h,06/29.3722/2019,146.6817,120.8014,268.4066,1.001132,5.763107,2000,8.0,4.0
# From MPEC 2022-P91
P/2020 A4 (PANSTARRS-Lemmon),e,24.9902,312.4014,144.7635,8.193807,0.0420219,0.65378429,45.3546,11/06.0/2022,2000,g 15.0,4.0
# From MPEC 2020-N08
A/2020 B1,e,18.5156,309.9883,154.7123,51.35110,0.0026784,0.96606497,2.8014,11/06.0/2022,2000,g 21.0,2.0
# From MPEC 2022-N37
C/2020 B3 (Rankin),e,20.7099,185.8502,324.9468,978.6788,0.0000322,0.99658798,0.0000,10/19.3918/2019,2000,g 13.0,4.0
# From MPEC 2022-H04
P/2020 B4 (Sheppard),e,11.6094,185.9793,342.1560,7.966608,0.0438323,0.19170360,15.3623,11/06.0/2022,2000,g 10.5,4.0
# From MPEC 2022-UE6
C/2020 F2 (ATLAS),h,07/15.4085/2022,163.5866,250.2796,48.3463,1.005373,8.817033,2000,4.5,4.0
# From MPEC 2021-O56
C/2020 F3 (NEOWISE),e,129.0616,61.0544,37.3392,348.8106,0.0001513,0.99915274,0.0000,07/03.6345/2020,2000,g  7.5,5.2
# From MPEC 2022-V95
C/2020 F5 (MASTER),e,52.2251,350.5117,310.6873,189.4594,0.0003779,0.97718100,0.0000,03/18.1096/2021,2000,g  6.5,3.2
# From MPEC 2020-L06
C/2020 F6 (PANSTARRS),e,174.5830,207.9086,344.5908,410.8723,0.0001183,0.99146218,0.0000,04/11.7660/2020,2000,g 14.5,2.8
# From MPEC 2022-V95
C/2020 F7 (Lemmon),e,93.9504,321.8785,227.9540,612.2977,0.0000651,0.99129180,0.0000,11/13.8278/2021,2000,g  7.0,4.0
# From MPEC 2020-KB7
C/2020 F8 (SWAN),e,110.6858,259.9119,68.1465,260.2085,0.0002348,0.99834939,0.0000,05/27.4910/2020,2000,g 10.0,4.0
# From MPEC 2020-L06
P/2020 G1 (Pimentel),e,18.5012,240.1144,207.6080,3.608671,0.1437749,0.86020225,138.5354,11/06.0/2022,2000,g 17.0,4.0
# From MPEC 2020-L06
C/2020 H2 (Pruyne),e,124.9571,277.6600,26.6882,192.3208,0.0003695,0.99567245,0.0000,04/27.7948/2020,2000,g 18.0,4.0
# From MPEC 2020-HM1
C/2020 H3 (Wierzchos),p,06/05.7162/2020,62.5292,30.4456,2.300288,270.6227,2000,13.5,4.0
# From MPEC 2020-L06
C/2020 H4 (Leonard),e,84.5029,307.6895,117.5522,47.90733,0.0029724,0.98068968,0.0000,08/29.6157/2020,2000,g 15.0,3.2
# From MPEC 2022-N37
C/2020 H5 (Robinson),e,70.2505,210.6274,326.3652,3629,0.0000045,0.99742516,0.0000,12/11.2279/2020,2000,g  5.0,4.0
# From MPEC 2022-V95
C/2020 H6 (ATLAS),h,09/30.8996/2021,79.9769,213.7162,20.3266,1.000011,4.702557,2000,8.0,3.2
# From MPEC 2020-KB7
C/2020 H7 (Lemmon),e,135.9235,323.5194,82.6780,1405,0.0000187,0.99685380,0.0000,06/02.9510/2020,2000,g 11.0,4.0
# From MPEC 2021-N06
C/2020 H8 (PANSTARRS),e,99.6759,68.4181,128.9472,594.0297,0.0000681,0.99212877,0.0000,06/04.4966/2020,2000,g 10.5,4.0
# From MPEC 2022-ED3
A/2020 H9,e,137.8771,213.1727,312.8583,372.1629,0.0001373,0.99307781,0.0000,12/21.4866/2019,2000,g 18.0,2.0
# From MPEC 2022-S20
C/2020 J1 (SONEAR),h,04/18.6536/2021,142.3034,226.5966,341.7597,1.000789,3.354560,2000,8.5,3.2
# From MPEC 2022-V95
C/2020 K1 (PANSTARRS),e,89.6665,94.3548,213.9817,559396,0.0000000,0.99999451,0.0000,05/09.0696/2023,2000,g  5.5,4.0
# From MPEC 2021-N06
C/2020 K2 (PANSTARRS),h,08/06.3015/2020,91.0336,288.3786,67.3469,1.003892,8.879669,2000,10.8,4.0
# From MPEC 2020-KF9
C/2020 K3 (Leonard),p,06/01.0032/2020,129.0152,64.4924,1.583069,28.3546,2000,14.5,4.0
# From MPEC 2020-L06
C/2020 K4 (PANSTARRS),e,125.5796,264.1626,308.8492,23.94642,0.0084109,0.92673743,8.2191,11/06.0/2022,2000,g 16.5,4.0
# From MPEC 2021-R75
C/2020 K5 (PANSTARRS),h,06/05.5418/2021,67.1317,86.1658,249.6036,1.001451,1.536233,2000,11.0,4.0
# From MPEC 2022-PB4
C/2020 K6 (Rankin),h,09/15.8034/2021,103.6494,291.5412,44.3313,1.003600,5.868795,2000,8.0,4.0
# From MPEC 2022-L66
C/2020 K7 (PANSTARRS),e,32.0402,286.0707,358.2640,99.71901,0.0009898,0.93589555,1.0932,11/06.0/2022,2000,g  8.0,4.0
# From MPEC 2021-P47
C/2020 K8 (Catalina-ATLAS),h,09/14.6910/2020,31.4299,181.5469,259.9676,1.000161,0.472720,2000,15.0,3.2
# From MPEC 2021-BE3
P/2020 K9 (Lemmon-PANSTARRS),e,23.2096,166.2404,197.0072,4.201554,0.1144430,0.32138772,72.2956,11/06.0/2022,2000,g 12.5,4.0
# From MPEC 2021-U31
P/2020 M1 (PANSTARRS),e,8.5494,142.6724,72.5871,5.316537,0.0804009,0.47487658,83.9673,11/06.0/2022,2000,g 14.5,4.0
# From MPEC 2022-H30
C/2020 M3 (ATLAS),e,23.4741,71.1866,328.5180,27.03204,0.0070127,0.95309159,5.1979,11/06.0/2022,2000,g 14.5,4.0
# From MPEC 2022-OB6
A/2020 M4,h,11/24.2321/2020,160.1273,348.6215,104.6513,1.000851,5.952078,2000,14.5,2.0
# From MPEC 2022-S20
C/2020 M5 (ATLAS),h,08/19.8650/2021,93.2240,352.0933,126.3216,1.000402,3.003679,2000,9.0,4.0
# From MPEC 2022-GA9
C/2020 N1 (PANSTARRS),h,03/12.2619/2021,29.7142,279.9482,186.7555,1.000436,1.319336,2000,12.5,4.0
# From MPEC 2021-P47
C/2020 N2 (ATLAS),e,161.0349,257.1339,331.3061,104.1480,0.0009273,0.98277548,0.0000,08/23.9311/2020,2000,g 16.0,3.2
# From MPEC 2022-PB4
P/2020 O1 (Lemmon-PANSTARRS),e,5.2256,175.9750,104.5406,2.645283,0.2290846,0.11901968,210.2471,11/06.0/2022,2000,g 15.5,4.0
# From MPEC 2022-V95
C/2020 O2 (Amaral),h,08/28.6365/2021,71.7570,256.7646,10.3149,1.001977,4.862532,2000,8.0,3.2
# From MPEC 2020-SI8
P/2020 O3 (PANSTARRS),e,8.4436,266.8194,81.5621,4.648598,0.0983379,0.10341027,63.4497,11/06.0/2022,2000,g 12.0,4.0
# From MPEC 2021-BE3
C/2020 P1 (NEOWISE),h,10/20.3108/2020,45.1421,53.4964,8.8873,1.000291,0.341246,2000,14.0,3.2
# From MPEC 2022-UY9
C/2020 P3 (ATLAS),h,04/21.0742/2021,61.8889,19.4664,82.2620,1.000754,6.812379,2000,6.0,4.0
# From MPEC 2022-PB4
C/2020 PV6 (PANSTARRS),e,128.2352,329.1473,71.3929,42.02294,0.0036180,0.94537350,1.4687,11/06.0/2022,2000,g 10.0,4.0
# From MPEC 2022-L66
C/2020 Q1 (Borisov),e,142.9315,52.4010,9.9381,60.71292,0.0020834,0.97831430,0.0000,08/14.4698/2020,2000,g 14.0,4.0
# From MPEC 2022-UY9
C/2020 R2 (PANSTARRS),e,53.2282,195.0932,211.7708,405.2831,0.0001208,0.98842249,0.0000,02/24.7460/2022,2000,g  9.0,4.0
# From MPEC 2022-K19
C/2020 R4 (ATLAS),e,164.4582,323.2743,46.7107,99.72281,0.0009897,0.98969172,0.0000,03/02.0653/2021,2000,g 13.5,4.0
# From MPEC 2020-W26
P/2020 R5 (PANSTARRS),e,11.4478,272.9749,82.5517,4.985781,0.0885328,0.31465945,78.8527,11/06.0/2022,2000,g  9.5,6.0
# From MPEC 2021-Y10
C/2020 R6 (Rankin),e,82.8105,12.1774,271.9933,327.9345,0.0001660,0.99044711,0.0000,09/08.9738/2019,2000,g 11.0,4.0
# From MPEC 2022-UY9
C/2020 R7 (ATLAS),h,09/16.2424/2022,114.8919,268.2817,347.8388,1.000188,2.955993,2000,7.0,3.2
# From MPEC 2021-BE3
P/2020 S1 (PANSTARRS),e,13.7310,129.4633,254.9824,5.990183,0.0672270,0.50770798,44.2081,11/06.0/2022,2000,g 14.0,4.0
# From MPEC 2022-ST7
C/2020 S2 (PANSTARRS),e,22.4035,197.6638,202.3223,10.21356,0.0301952,0.82803255,20.6501,11/06.0/2022,2000,g 17.0,4.0
# From MPEC 2022-C56
C/2020 S3 (Erasmus),e,20.0075,222.6177,350.0903,158.7535,0.0004927,0.99750464,0.0000,12/12.3312/2020,2000,g 13.5,3.2
# From MPEC 2022-V95
C/2020 S4 (PANSTARRS),h,02/09.2468/2023,20.5709,117.7228,20.9922,1.001005,3.369720,2000,8.5,3.2
# From MPEC 2021-BE3
P/2020 S5 (PANSTARRS),e,12.3503,316.0026,53.1746,4.053254,0.1207809,0.33858960,98.9197,11/06.0/2022,2000,g 14.5,4.0
# From MPEC 2022-UE6
P/2020 S6 (Leonard),e,15.4633,242.5367,176.6809,3.600147,0.1442858,0.47953950,102.7569,11/06.0/2022,2000,g 16.0,4.0
# From MPEC 2021-BE3
P/2020 S7 (PANSTARRS),e,16.0901,328.0248,40.5413,5.028897,0.0873967,0.41074639,62.6952,11/06.0/2022,2000,g 14.5,4.0
# From MPEC 2021-P47
C/2020 S8 (Lemmon),e,108.5273,24.0655,160.3038,269.2717,0.0002231,0.99122575,0.0000,04/10.8729/2021,2000,g 12.5,4.0
# From MPEC 2022-ST7
C/2020 T2 (Palomar),e,27.8571,82.9909,150.4981,320.6824,0.0001716,0.99358653,0.0000,07/11.1670/2021,2000,g 11.0,3.2
# From MPEC 2021-N06
P/2020 T3 (PANSTARRS),e,7.2975,73.9945,357.0353,3.517106,0.1494259,0.59193139,97.7808,11/06.0/2022,2000,g 18.0,3.2
# From MPEC 2021-N06
C/2020 T4 (PANSTARRS),h,07/05.2804/2021,83.8301,50.6140,79.6098,1.000146,2.191769,2000,13.0,3.2
# From MPEC 2021-BE3
